     2.11           N: GPS NAV DATA                         RINEX VERSION / TYPE
gfzrnx-1.11-7352    FILE MERGE          20190611 001328 UTC PGM / RUN BY / DATE 
    18                  GPS                                 LEAP SECONDS        
                                                            END OF HEADER
32 19 06 09 22 00  0.0-5.046045407653e-05 1.625721779419e-11 0.000000000000e+00
    1.700000000000e+01 9.125000000000e+00 4.552689637797e-09-7.588026243179e-01
    3.520399332047e-07 3.113668644801e-03 9.909272193909e-06 5.153596696854e+03
    7.920000000000e+04 7.823109626770e-08-1.147228335054e+00 2.607703208923e-08
    9.564721034852e-01 1.891250000000e+02-2.489629865363e+00-8.036763334880e-09
    8.107480566251e-11 1.000000000000e+00 2.057000000000e+03 0.000000000000e+00
    2.000000000000e+00 0.000000000000e+00 4.656612873077e-10 1.700000000000e+01
    7.202000000000e+04 4.000000000000e+00 0.000000000000e+00 0.000000000000e+00
32 19 06 10 04 00  0.0-5.011027678847e-05 1.625721779419e-11 0.000000000000e+00
    7.900000000000e+01 1.206250000000e+01 4.641621913612e-09 2.391505986932e+00
    5.792826414108e-07 3.114902880043e-03 1.153349876404e-05 5.153596805573e+03
    1.008000000000e+05-4.470348358154e-08-1.147402434008e+00-5.587935447693e-09
    9.564747250344e-01 1.544375000000e+02-2.489252378370e+00-7.956402844686e-09
    1.807218135032e-10 1.000000000000e+00 2.057000000000e+03 0.000000000000e+00
    2.000000000000e+00 0.000000000000e+00 4.656612873077e-10 7.900000000000e+01
    1.002490000000e+05 4.000000000000e+00 0.000000000000e+00 0.000000000000e+00
32 19 06 10 06 00  0.0-4.999386146665e-05 1.625721779419e-11 0.000000000000e+00
    8.100000000000e+01 1.978125000000e+01 4.634478758928e-09-2.841530650254e+00
    1.000240445137e-06 3.113613813184e-03 1.118704676628e-05 5.153599254608e+03
    1.080000000000e+05-1.862645149231e-08-1.147459906208e+00-5.401670932770e-08
    9.564759699776e-01 1.602187500000e+02-2.489172905346e+00-7.984975463422e-09
    2.014369620866e-10 1.000000000000e+00 2.057000000000e+03 0.000000000000e+00
    2.000000000000e+00 0.000000000000e+00 4.656612873077e-10 8.100000000000e+01
    1.008200000000e+05 4.000000000000e+00 0.000000000000e+00 0.000000000000e+00
32 19 06 10 08 00  0.0-4.987698048353e-05 1.614353095647e-11 0.000000000000e+00
    8.200000000000e+01 1.628125000000e+01 4.711981987249e-09-1.791767226571e+00
    8.437782526016e-07 3.115023137070e-03 1.050531864166e-05 5.153595462799e+03
    1.152000000000e+05 1.862645149231e-08-1.147517695861e+00-5.587935447693e-09
    9.564775894280e-01 1.743750000000e+02-2.488707428220e+00-7.996761668650e-09
    2.464388365953e-10 1.000000000000e+00 2.057000000000e+03 0.000000000000e+00
    2.000000000000e+00 0.000000000000e+00 4.656612873077e-10 8.200000000000e+01
    1.080200000000e+05 4.000000000000e+00 0.000000000000e+00 0.000000000000e+00
32 19 06 10 09 59 44.0-4.976149648428e-05 1.614353095647e-11 0.000000000000e+00
    3.000000000000e+00 5.062500000000e+00 4.640550440410e-09-7.433620067542e-01
    3.855675458908e-07 3.115549799986e-03 1.034513115883e-05 5.153598615646e+03
    1.223840000000e+05 1.862645149231e-08-1.147575144654e+00 1.676380634308e-08
    9.564792615433e-01 1.788125000000e+02-2.489217538976e+00-8.014262397626e-09
    2.378670509746e-10 1.000000000000e+00 2.057000000000e+03 0.000000000000e+00
    2.000000000000e+00 0.000000000000e+00 4.656612873077e-10 3.000000000000e+00
    1.223590000000e+05 4.000000000000e+00 0.000000000000e+00 0.000000000000e+00
32 19 06 10 10 00  0.0-4.976056516171e-05 1.614353095647e-11 0.000000000000e+00
    9.600000000000e+01 5.062500000000e+00 4.640550440410e-09-7.410275274338e-01
    3.855675458908e-07 3.115551662631e-03 1.034513115883e-05 5.153598623276e+03
    1.224000000000e+05 1.862645149231e-08-1.147575261687e+00 1.676380634308e-08
    9.564792688579e-01 1.788125000000e+02-2.489218210456e+00-8.014262397626e-09
    2.378670509746e-10 1.000000000000e+00 2.057000000000e+03 0.000000000000e+00
    2.000000000000e+00 0.000000000000e+00 4.656612873077e-10 9.600000000000e+01
    1.152200000000e+05 4.000000000000e+00 0.000000000000e+00 0.000000000000e+00
32 19 06 10 11 59 44.0-4.964508116245e-05 1.614353095647e-11 0.000000000000e+00
    4.000000000000e+00-3.593750000000e+00 4.625549815573e-09 3.067880018088e-01
   -1.974403858185e-07 3.114118706435e-03 1.076236367226e-05 5.153595876694e+03
    1.295840000000e+05 7.450580596924e-09-1.147632706092e+00 4.656612873077e-08
    9.564810228967e-01 1.728750000000e+02-2.489139209954e+00-7.992475775840e-09
    2.242950570751e-10 1.000000000000e+00 2.057000000000e+03 0.000000000000e+00
    2.000000000000e+00 0.000000000000e+00 4.656612873077e-10 4.000000000000e+00
    1.224200000000e+05 4.000000000000e+00 0.000000000000e+00 0.000000000000e+00
32 19 06 10 20 00  0.0-4.917848855257e-05 1.614353095647e-11 0.000000000000e+00
    3.800000000000e+01 1.178125000000e+01 4.394111603814e-09-1.774226693972e+00
    6.053596735001e-07 3.117422689684e-03 1.097097992897e-05 5.153595399857e+03
    1.584000000000e+05-2.235174179077e-08-1.147859645647e+00-1.639127731323e-07
    9.564874685137e-01 1.695312500000e+02-2.488074173408e+00-7.829969006781e-09
    2.785830326729e-11 1.000000000000e+00 2.057000000000e+03 0.000000000000e+00
    2.000000000000e+00 0.000000000000e+00 4.656612873077e-10 3.800000000000e+01
    1.523780000000e+05 4.000000000000e+00 0.000000000000e+00 0.000000000000e+00
32 19 06 10 22 00  0.0-4.906207323074e-05 1.614353095647e-11 0.000000000000e+00
    3.900000000000e+01-2.812500000000e-01 4.481258090958e-09-7.234348388791e-01
   -1.508742570877e-07 3.118119318970e-03 1.059472560883e-05 5.153598962784e+03
    1.656000000000e+05 8.009374141693e-08-1.147915916791e+00 4.470348358154e-08
    9.564864971361e-01 1.760312500000e+02-2.488639226979e+00-8.013548082158e-09
   -8.893227581482e-11 1.000000000000e+00 2.057000000000e+03 0.000000000000e+00
    2.000000000000e+00 0.000000000000e+00 4.656612873077e-10 3.900000000000e+01
    1.584200000000e+05 4.000000000000e+00 0.000000000000e+00 0.000000000000e+00
